[{"OBJECT_NAME":"FLOCK 4G-18","OBJECT_ID":"2025-009BZ","EPOCH":"2026-03-09T04:35:14.656704","MEAN_MOTION":15.27241676,"ECCENTRICITY":0.00041001,"INCLINATION":97.4054,"RA_OF_ASC_NODE":150.5008,"ARG_OF_PERICENTER":335.7331,"MEAN_ANOMALY":24.3715,"EPHEMERIS_TYPE":0,"CLASSIFICATION_TYPE":"U","NORAD_CAT_ID":62680,"ELEMENT_SET_NO":999,"REV_AT_EPOCH":12126,"BSTAR":0.0004431856,"MEAN_MOTION_DOT":0.00011766,"MEAN_MOTION_DDOT":0},{"OBJECT_NAME":"STARLINK-33630","OBJECT_ID":"2025-070T","EPOCH":"2026-03-09T12:47:13.243488","MEAN_MOTION":15.27568423,"ECCENTRICITY":0.00014983,"INCLINATION":42.9982,"RA_OF_ASC_NODE":257.0985,"ARG_OF_PERICENTER":254.5646,"MEAN_ANOMALY":105.504,"EPHEMERIS_TYPE":0,"CLASSIFICATION_TYPE":"U","NORAD_CAT_ID":63477,"ELEMENT_SET_NO":999,"REV_AT_EPOCH":5299,"BSTAR":0.001462945,"MEAN_MOTION_DOT":0.00040201,"MEAN_MOTION_DDOT":0}]
